STARLINK-3877           
1 52355U 22045AA  24093.50353473  .00000878  00000+0  73265-4 0  9990
2 52355  53.2166 129.3134 0001442  86.1287 273.9870 15.08836926109173
STARLINK-3801           
1 52356U 22045AB  24093.36000933  .00007003  00000+0  45752-3 0  9991
2 52356  53.2153 129.9855 0001500  80.1730 279.9432 15.08849086109157
STARLINK-3821           
1 52357U 22045AC  24093.49616840 -.00000626  00000+0 -21271-4 0  9993
2 52357  53.2165 129.3431 0001590 100.1602 259.9569 15.08834425109177
STARLINK-3837           
1 52358U 22045AD  24093.47776532  .00002470  00000+0  17323-3 0  9996
2 52358  53.2161 129.4298 0001675  90.3241 269.7944 15.08845976109178
STARLINK-3853           
1 52359U 22045AE  24093.49343976  .00001771  00000+0  12931-3 0  9994
2 52359  53.2150 129.3666 0001622  90.0397 270.0781 15.08844292109170
STARLINK-3824           
1 52360U 22045AF  24093.33884591  .00003139  00000+0  21528-3 0  9994
2 52360  53.2162 120.0499 0001654  90.8699 269.2483 15.08832176109273
STARLINK-3728           
1 52361U 22045AG  24093.41888002  .00001885  00000+0  13650-3 0  9998
2 52361  53.2163 129.6928 0001536  94.4836 265.6332 15.08846650109162
STARLINK-3848           
1 52362U 22045AH  24093.33516170  .00001487  00000+0  11145-3 0  9999
2 52362  53.2161 120.0682 0001525  86.2703 273.8464 15.08846961109288
STARLINK-3830           
1 52363U 22045AJ  24093.48144560  .00003768  00000+0  25472-3 0  9998
2 52363  53.2156 129.4120 0001957 105.7614 254.3594 15.08843716109171
STARLINK-3820           
1 52364U 22045AK  24093.45294177  .00001442  00000+0  10872-3 0  9991
2 52364  53.2161 119.4496 0001890  70.4252 289.6944 15.08824084109307
STARLINK-3874           
1 52365U 22045AL  24093.47500557  .00007266  00000+0  47401-3 0  9994
2 52365  53.2153 119.4401 0001529  85.0393 275.0774 15.08849740109308
STARLINK-3808           
1 52366U 22045AM  24093.45661598  .00011941  00000+0  76721-3 0  9998
2 52366  53.2149 119.5219 0001389 102.1823 257.9324 15.08832036109305
STARLINK-3817           
1 52367U 22045AN  24093.33148883  .00000349  00000+0  40056-4 0  9996
2 52367  53.2172 120.0839 0001658  90.8072 269.3110 15.08836195109282
STARLINK-3834           
1 52368U 22045AP  24093.44556155  .00002166  00000+0  15410-3 0  9998
2 52368  53.2166 119.5743 0001442  93.2897 266.8260 15.08845581109294
STARLINK-3841           
1 52369U 22045AQ  24093.39404407  .00003031  00000+0  20837-3 0  9996
2 52369  53.2154 119.8022 0001491  94.1382 265.9780 15.08850486109295
STARLINK-3827           
1 52370U 22045AR  24093.45387383  .00002199  00000+0  15617-3 0  9992
2 52370  53.2169 119.5461 0001462  87.3462 272.7697 15.08851394109302
STARLINK-3798           
1 52371U 22045AS  24093.38396233  .00000842  00000+0  70995-4 0  9993
2 52371  53.2172 119.8604 0001596  92.8818 267.2357 15.08840732109286
STARLINK-3796           
1 52372U 22045AT  24093.37564822  .00011421  00000+0  73433-3 0  9998
2 52372  53.2157 119.8886 0001466  86.1660 273.9499 15.08849212109282
STARLINK-3550           
1 52373U 22045AU  24093.49707518  .00003966  00000+0  26702-3 0  9995
2 52373  53.2156 119.3425 0001474  92.2686 267.8475 15.08853295109317
STARLINK-3762           
1 52374U 22045AV  24093.36829591  .00002469  00000+0  17326-3 0  9997
2 52374  53.2165 119.9217 0001538  79.7558 280.3607 15.08812588109296
STARLINK-3785           
1 52375U 22045AW  24093.43821300  .00001733  00000+0  12698-3 0  9996
2 52375  53.2159 119.6076 0001494  89.6022 270.5142 15.08838020109303
STARLINK-3767           
1 52376U 22045AX  24093.36092132  .00000231  00000+0  32589-4 0  9996
2 52376  53.2157 119.9506 0001573  94.5027 265.6145 15.08839221109291
STARLINK-3805           
1 52377U 22045AY  24093.44927116  .00000996  00000+0  80632-4 0  9995
2 52377  53.2164 119.7797 0001471  90.2326 269.8835 15.08839656109296
STARLINK-3806           
1 52378U 22045AZ  24093.48603955  .00001220  00000+0  94738-4 0  9995
2 52378  53.2147 119.3925 0001016  82.4520 277.6587 15.08842324109311
STARLINK-3800           
1 52379U 22045BA  24093.48971729  .00001475  00000+0  11073-3 0  9995
2 52379  53.2168 119.3745 0001633  95.1170 265.0008 15.08847702109316
STARLINK-3793           
1 52380U 22045BB  24093.46856521  .00001138  00000+0  89558-4 0  9997
2 52380  53.2163 109.4946 0001539  96.2603 263.8564 15.08843559109447
STARLINK-3803           
1 52381U 22045BC  24093.34987699  .00002457  00000+0  17238-3 0  9996
2 52381  53.2165 120.0007 0001556  93.0188 267.0982 15.08849742109292
STARLINK-3799           
1 52382U 22045BD  24093.34620437  .00003345  00000+0  22816-3 0  9996
2 52382  53.2173 120.0285 0001281  94.8491 265.2647 15.08840546109292
STARLINK-3811           
1 52383U 22045BE  24093.36920259  .00001155  00000+0  90640-4 0  9992
2 52383  53.2158 109.9408 0001441  93.1295 266.9862 15.08845660109436
STARLINK-3870           
1 52451U 22049A   24093.46028471  .00008396  00000+0  54502-3 0  9998
2 52451  53.2171 359.5091 0001333  82.6713 277.4430 15.08837738105493
STARLINK-3909           
1 52452U 22049B   24093.47132856  .00017101  00000+0  10902-2 0  9992
2 52452  53.2177 359.3317 0001543  74.2888 285.8275 15.08830997105492
STARLINK-3872           
1 52453U 22049C   24093.45292450  .00002904  00000+0  20043-3 0  9991
2 52453  53.2203 359.5427 0001829  87.9480 272.1722 15.08851110105499
STARLINK-3888           
1 52454U 22049D   24093.45660427  .00001109  00000+0  87745-4 0  9994
2 52454  53.2201 359.5257 0001408  93.1326 266.9827 15.08846551105490
STARLINK-3890           
1 52455U 22049E   24093.45019975  .00002661  00000+0  18516-3 0  9994
2 52455  53.2200 359.5554 0001474  81.6670 278.4490 15.08852020105499
STARLINK-3896           
1 52456U 22049F   24093.44652235  .00002111  00000+0  15068-3 0  9995
2 52456  53.2191 359.5736 0001379 100.6542 259.4605 15.08835240105497
STARLINK-3899           
1 52457U 22049G   24093.44188126  .00019656  00000+0  12492-2 0  9998
2 52457  53.2176 359.5817 0001224  81.1661 278.9470 15.08853269105492
STARLINK-3898           
1 52458U 22049H   24093.43916437 -.00001008  00000+0 -45277-4 0  9995
2 52458  53.2198 359.6055 0001281  96.4920 263.6218 15.08834579105496
STARLINK-3856           
1 52459U 22049J   24093.42440760 -.00001574  00000+0 -80826-4 0  9993
2 52459  53.2186 349.6686 0001235  83.6200 276.4933 15.08832405105628
STARLINK-3865           
1 52460U 22049K   24092.95336090  .00017100  00000+0  10894-2 0  9998
2 52460  53.2183 351.7350 0001042 108.5199 251.5906 15.08856259105558
STARLINK-3900           
1 52461U 22049L   24093.42164499  .00010450  00000+0  67372-3 0  9999
2 52461  53.2162 339.6832 0000993 104.7375 255.3727 15.08836384105767
STARLINK-3903           
1 52462U 22049M   24092.95431656 -.00006468  00000+0 -38873-3 0  9999
2 52462  53.2205 351.7929 0001755 114.3087 245.8089 15.08829663105556
STARLINK-3885           
1 52463U 22049N   24092.95428709 -.00001256  00000+0 -60801-4 0  9992
2 52463  53.2195 341.7781 0001303  88.9779 271.1362 15.08847352105699
STARLINK-3904           
1 52464U 22049P   24093.02328368 -.00001746  00000+0 -91658-4 0  9990
2 52464  53.2195 351.4714 0001402  94.8211 265.2941 15.08835741105563
STARLINK-3863           
1 52465U 22049Q   24092.95060440  .00000708  00000+0  62596-4 0  9990
2 52465  53.2184 341.7970 0001451 100.5030 259.6126 15.08839801105693
STARLINK-3840           
1 52466U 22049R   24093.42537865 -.00000015  00000+0  17130-4 0  9990
2 52466  53.2187 349.8373 0001146  90.4788 269.6336 15.08841721105622
STARLINK-3873           
1 52467U 22049S   24093.01592109  .00000934  00000+0  76746-4 0  9995
2 52467  53.2185 351.5057 0001353 106.3190 253.7952 15.08843898105562
STARLINK-3864           
1 52468U 22049T   24093.00120396  .00001320  00000+0  10103-3 0  9994
2 52468  53.2189 351.5654 0001403  84.1041 276.0111 15.08842489105564
STARLINK-3828           
1 52469U 22049U   24093.14107699  .00018740  00000+0  11914-2 0  9995
2 52469  53.2193 350.9396 0001452  77.9148 282.2007 15.08871528105589
STARLINK-3859           
1 52470U 22049V   24093.12631858  .00000304  00000+0  37208-4 0  9997
2 52470  53.2176 351.0064 0001132 103.5117 256.6001 15.08845127105588
STARLINK-3862           
1 52471U 22049W   24093.40327886  .00000985  00000+0  79963-4 0  9991
2 52471  53.2179 349.7715 0001228  91.3573 268.7560 15.08844432105622
STARLINK-3881           
1 52472U 22049X   24092.99016351  .00021217  00000+0  13474-2 0  9991
2 52472  53.2182 351.6188 0001381  72.5340 287.5803 15.08833417105569
STARLINK-3879           
1 52473U 22049Y   24093.12999142 -.00004735  00000+0 -27962-3 0  9992
2 52473  53.2191 350.9903 0001288  92.3880 267.7260 15.08839637105581
STARLINK-3855           
1 52474U 22049Z   24093.40787733  .00000989  00000+0  80217-4 0  9993
2 52474  53.2170 339.7516 0001150  88.9601 271.1523 15.08847074105769
STARLINK-3882           
1 52475U 22049AA  24093.01227102  .00000885  00000+0  73667-4 0  9996
2 52475  53.2189 351.7449 0001378  91.8505 268.2645 15.08837831105567
STARLINK-3835           
1 52476U 22049AB  24093.09511997 -.00001754  00000+0 -92153-4 0  9992
2 52476  53.2188 341.3878 0001356 100.2961 259.8184 15.08830913106957
STARLINK-3860           
1 52477U 22049AC  24093.01317158 -.00001764  00000+0 -92838-4 0  9999
2 52477  53.2179 341.5171 0001207  72.8961 287.2163 15.08820839106942
STARLINK-3825           
1 52478U 22049AD  24093.44646350 -.00011394  00000+0 -69932-3 0  9994
2 52478  53.2194 349.5721 0001672  98.7105 261.4076 15.08817265106870
STARLINK-3878           
1 52479U 22049AE  24093.39587398 -.00008877  00000+0 -54055-3 0  9997
2 52479  53.2176 339.7956 0001192  83.6358 276.4770 15.08827891107001
STARLINK-3839           
1 52480U 22049AF  24093.44280672  .00000113  00000+0  25161-4 0  9990
2 52480  53.2179 349.5873 0001230  83.1862 276.9270 15.08840739105634
